54663,ONEWEB-0597,2022,108.94,148.0,+,87.93,Active,1,LEO,USA,UK,Commercial,Communications,Falcon,1 54663U 22166X   25071.23564264  .00000052  00000+0  95078-4 0  9997,2 54663  87.9346 336.0792 0001752  87.8907 272.2427 13.21827550110515,13.2182755,0.0001752,LEO
54664,ONEWEB-0600,2022,108.94,148.0,+,87.93,Active,1,LEO,USA,UK,Commercial,Communications,Falcon,1 54664U 22166Y   25071.74817291  .00000034  00000+0  51080-4 0  9990,2 54664  87.9327 335.9981 0001861  84.1075 276.0271 13.21825840111026,13.2182584,0.0001861,LEO
54665,ONEWEB-0601,2022,108.94,148.0,+,87.93,Active,1,LEO,USA,UK,Commercial,Communications,Falcon,1 54665U 22166Z   25071.43749757  .00000083  00000+0  16978-3 0  9998,2 54665  87.9347 336.0482 0001579  91.5805 268.5509 13.21825982110707,13.21825982,0.0001579,LEO
54666,ONEWEB-0602,2022,108.94,148.0,+,87.93,Active,1,LEO,USA,UK,Commercial,Communications,Falcon,1 54666U 22166AA  25071.25141780 -.00000013  00000+0 -62875-4 0  9994,2 54666  87.9345 336.0867 0001868  88.7951 271.3397 13.21826230110528,13.2182623,0.0001868,LEO
54667,ONEWEB-0603,2022,108.94,148.0,+,87.93,Active,1,LEO,USA,UK,Commercial,Communications,Falcon,1 54667U 22166AB  25071.63462717 -.00000089  00000+0 -24717-3 0  9998,2 54667  87.9321 335.9797 0001715  89.5966 270.5364 13.21825938110506,13.21825938,0.0001715,LEO
54668,ONEWEB-0604,2022,108.94,148.0,+,87.93,Active,1,LEO,USA,UK,Commercial,Communications,Falcon,1 54668U 22166AC  25071.47062036  .00000001  00000+0 -30159-4 0  9992,2 54668  87.9339 336.0097 0001911  88.5940 271.5413 13.21825554110443,13.21825554,0.0001911,LEO
54669,ONEWEB-0605,2022,108.94,148.0,+,87.93,Active,1,LEO,USA,UK,Commercial,Communications,Falcon,1 54669U 22166AD  25071.76709384  .00000064  00000+0  12293-3 0  9995,2 54669  87.9339 335.9821 0001227  98.5436 261.5837 13.21825770111022,13.2182577,0.0001227,LEO
54670,ONEWEB-0606,2022,108.94,148.0,+,87.93,Active,1,LEO,USA,UK,Commercial,Communications,Falcon,1 54670U 22166AE  25071.63778370 -.00000077  00000+0 -21782-3 0  9993,2 54670  87.9345 336.0129 0001842  73.4794 286.6542 13.21825982110593,13.21825982,0.0001842,LEO
